{
  "type": "FeatureCollection",
  "features": [
    {
      "type": "Feature",
      "properties": {
        "norad_id": 40894,
        "name": "GAOFEN-9 01",
        "group": "resource",
        "lat": -52.71834645459149,
        "lon": 38.629163530421145,
        "alt_km": 624.6226886919721,
        "timestamp": "2025-12-15T14:57:57.497382+00:00",
        "meta_object_name": "GAOFEN-9 01",
        "meta_object_id": "2015-047A",
        "meta_epoch": "2025-12-14T23:00:21.952224",
        "meta_mean_motion": 14.82427328,
        "meta_eccentricity": 0.00282223,
        "meta_inclination": 97.6541,
        "meta_ra_of_asc_node": 27.8183,
        "meta_arg_of_pericenter": 27.2061,
        "meta_mean_anomaly": 333.0625,
        "meta_ephemeris_type": 0,
        "meta_classification_type": "U",
        "meta_norad_cat_id": 40894,
        "meta_element_set_no": 999,
        "meta_rev_at_epoch": 55289,
        "meta_bstar": 0.0001586808,
        "meta_mean_motion_dot": 1.229e-05,
        "meta_mean_motion_ddot": 0,
        "tle_line1": "1 40894U 15047A   25348.95858741  .00001229  00000+0  15868-3 0  9995",
        "tle_line2": "2 40894  97.6541  27.8183 0028222  27.2061 333.0625 14.82427328552894"
      },
      "geometry": {
        "type": "Point",
        "coordinates": [
          38.629163530421145,
          -52.71834645459149
        ]
      }
    },
    {
      "type": "Feature",
      "properties": {
        "norad_id": 41026,
        "name": "YAOGAN-28",
        "group": "resource",
        "lat": 6.473531672358251,
        "lon": -51.8348793451681,
        "alt_km": 490.09461792276943,
        "timestamp": "2025-12-15T14:57:57.497391+00:00",
        "meta_object_name": "YAOGAN-28",
        "meta_object_id": "2015-064A",
        "meta_epoch": "2025-12-14T22:27:17.826336",
        "meta_mean_motion": 15.24396218,
        "meta_eccentricity": 0.00124643,
        "meta_inclination": 97.2801,
        "meta_ra_of_asc_node": 126.6656,
        "meta_arg_of_pericenter": 118.926,
        "meta_mean_anomaly": 241.323,
        "meta_ephemeris_type": 0,
        "meta_classification_type": "U",
        "meta_norad_cat_id": 41026,
        "meta_element_set_no": 999,
        "meta_rev_at_epoch": 56258,
        "meta_bstar": 0.00028429651,
        "meta_mean_motion_dot": 6.913e-05,
        "meta_mean_motion_ddot": 0,
        "tle_line1": "1 41026U 15064A   25348.93562299  .00006913  00000+0  28430-3 0  9994",
        "tle_line2": "2 41026  97.2801 126.6656 0012464 118.9260 241.3230 15.24396218562580"
      },
      "geometry": {
        "type": "Point",
        "coordinates": [
          -51.8348793451681,
          6.473531672358251
        ]
      }
    },
    {
      "type": "Feature",
      "properties": {
        "norad_id": 41038,
        "name": "YAOGAN-29",
        "group": "resource",
        "lat": -19.59410333784349,
        "lon": -170.07267877013626,
        "alt_km": 625.322038349972,
        "timestamp": "2025-12-15T14:57:57.497401+00:00",
        "meta_object_name": "YAOGAN-29",
        "meta_object_id": "2015-069A",
        "meta_epoch": "2025-12-14T23:29:35.659680",
        "meta_mean_motion": 14.82888272,
        "meta_eccentricity": 1.053e-05,
        "meta_inclination": 98.0225,
        "meta_ra_of_asc_node": 12.1582,
        "meta_arg_of_pericenter": 209.4446,
        "meta_mean_anomaly": 150.6761,
        "meta_ephemeris_type": 0,
        "meta_classification_type": "U",
        "meta_norad_cat_id": 41038,
        "meta_element_set_no": 999,
        "meta_rev_at_epoch": 54332,
        "meta_bstar": 0.00014666878,
        "meta_mean_motion_dot": 1.134e-05,
        "meta_mean_motion_ddot": 0,
        "tle_line1": "1 41038U 15069A   25348.97888495  .00001134  00000+0  14667-3 0  9992",
        "tle_line2": "2 41038  98.0225  12.1582 0000105 209.4446 150.6761 14.82888272543321"
      },
      "geometry": {
        "type": "Point",
        "coordinates": [
          -170.07267877013626,
          -19.59410333784349
        ]
      }
    },
    {
      "type": "Feature",
      "properties": {
        "norad_id": 41167,
        "name": "KENT RIDGE 1",
        "group": "resource",
        "lat": 1.352724202324572,
        "lon": 4.681761672823198,
        "alt_km": 492.07255175998216,
        "timestamp": "2025-12-15T14:57:57.497410+00:00",
        "meta_object_name": "KENT RIDGE 1",
        "meta_object_id": "2015-077B",
        "meta_epoch": "2025-12-14T22:28:15.080160",
        "meta_mean_motion": 15.21656092,
        "meta_eccentricity": 0.00084775,
        "meta_inclination": 14.9785,
        "meta_ra_of_asc_node": 194.8424,
        "meta_arg_of_pericenter": 161.9763,
        "meta_mean_anomaly": 198.086,
        "meta_ephemeris_type": 0,
        "meta_classification_type": "U",
        "meta_norad_cat_id": 41167,
        "meta_element_set_no": 999,
        "meta_rev_at_epoch": 55297,
        "meta_bstar": 0.00014299227,
        "meta_mean_motion_dot": 4.084e-05,
        "meta_mean_motion_ddot": 0,
        "tle_line1": "1 41167U 15077B   25348.93628565  .00004084  00000+0  14299-3 0  9998",
        "tle_line2": "2 41167  14.9785 194.8424 0008477 161.9763 198.0860 15.21656092552973"
      },
      "geometry": {
        "type": "Point",
        "coordinates": [
          4.681761672823198,
          1.352724202324572
        ]
      }
    },
    {
      "type": "Feature",
      "properties": {
        "norad_id": 41194,
        "name": "GAOFEN-4",
        "group": "resource",
        "lat": -0.05591717306302009,
        "lon": 54.639856451127244,
        "alt_km": 35795.98025106847,
        "timestamp": "2025-12-15T14:57:57.497423+00:00",
        "meta_object_name": "GAOFEN-4",
        "meta_object_id": "2015-083A",
        "meta_epoch": "2025-12-14T22:28:54.120000",
        "meta_mean_motion": 1.00268731,
        "meta_eccentricity": 0.00033241,
        "meta_inclination": 0.1759,
        "meta_ra_of_asc_node": 81.4307,
        "meta_arg_of_pericenter": 102.853,
        "meta_mean_anomaly": 342.4629,
        "meta_ephemeris_type": 0,
        "meta_classification_type": "U",
        "meta_norad_cat_id": 41194,
        "meta_element_set_no": 999,
        "meta_rev_at_epoch": 3668,
        "meta_bstar": 0,
        "meta_mean_motion_dot": -3.14e-06,
        "meta_mean_motion_ddot": 0,
        "tle_line1": "1 41194U 15083A   25348.93673750 -.00000314  00000+0  00000+0 0  9995",
        "tle_line2": "2 41194   0.1759  81.4307 0003324 102.8530 342.4629  1.00268731 36688"
      },
      "geometry": {
        "type": "Point",
        "coordinates": [
          54.639856451127244,
          -0.05591717306302009
        ]
      }
    },
    {
      "type": "Feature",
      "properties": {
        "norad_id": 41240,
        "name": "JASON-3",
        "group": "resource",
        "lat": -1.7746923015378684,
        "lon": 150.97192661397716,
        "alt_km": 1312.8647038696563,
        "timestamp": "2025-12-15T14:57:57.497432+00:00",
        "meta_object_name": "JASON-3",
        "meta_object_id": "2016-002A",
        "meta_epoch": "2025-12-14T22:11:57.559200",
        "meta_mean_motion": 12.87626631,
        "meta_eccentricity": 0.00071527,
        "meta_inclination": 66.0392,
        "meta_ra_of_asc_node": 153.2298,
        "meta_arg_of_pericenter": 270.9182,
        "meta_mean_anomaly": 89.1017,
        "meta_ephemeris_type": 0,
        "meta_classification_type": "U",
        "meta_norad_cat_id": 41240,
        "meta_element_set_no": 999,
        "meta_rev_at_epoch": 46352,
        "meta_bstar": 0.00014740542,
        "meta_mean_motion_dot": -2.5e-07,
        "meta_mean_motion_ddot": 0,
        "tle_line1": "1 41240U 16002A   25348.92497175 -.00000025  00000+0  14741-3 0  9993",
        "tle_line2": "2 41240  66.0392 153.2298 0007152 270.9182  89.1017 12.87626631463521"
      },
      "geometry": {
        "type": "Point",
        "coordinates": [
          150.97192661397716,
          -1.7746923015378684
        ]
      }
    },
    {
      "type": "Feature",
      "properties": {
        "norad_id": 41335,
        "name": "SENTINEL-3A",
        "group": "resource",
        "lat": 36.27062294344191,
        "lon": 48.19602910545226,
        "alt_km": 799.6942842748786,
        "timestamp": "2025-12-15T14:57:57.497441+00:00",
        "meta_object_name": "SENTINEL-3A",
        "meta_object_id": "2016-011A",
        "meta_epoch": "2025-12-14T21:57:46.979712",
        "meta_mean_motion": 14.26731499,
        "meta_eccentricity": 9.384e-05,
        "meta_inclination": 98.6313,
        "meta_ra_of_asc_node": 53.8967,
        "meta_arg_of_pericenter": 91.3459,
        "meta_mean_anomaly": 268.7829,
        "meta_ephemeris_type": 0,
        "meta_classification_type": "U",
        "meta_norad_cat_id": 41335,
        "meta_element_set_no": 999,
        "meta_rev_at_epoch": 51178,
        "meta_bstar": 7.8539341e-05,
        "meta_mean_motion_dot": 1.46e-06,
        "meta_mean_motion_ddot": 0,
        "tle_line1": "1 41335U 16011A   25348.91512708  .00000146  00000+0  78539-4 0  9996",
        "tle_line2": "2 41335  98.6313  53.8967 0000938  91.3459 268.7829 14.26731499511787"
      },
      "geometry": {
        "type": "Point",
        "coordinates": [
          48.19602910545226,
          36.27062294344191
        ]
      }
    }
  ]
}